{"fetched_at":"2026-07-16T06:42:35.236Z","source":"https://celestrak.org/NORAD/elements/gp.php?GROUP=planet&FORMAT=JSON","constellation":"skysat","records":[{"OBJECT_NAME":"SKYSAT-A","OBJECT_ID":"2013-066C","EPOCH":"2026-07-15T02:23:29.623488","CLASSIFICATION_TYPE":"U","MEAN_MOTION":15.1311517,"ECCENTRICITY":0.00205081,"INCLINATION":97.3805,"RA_OF_ASC_NODE":244.6073,"ARG_OF_PERICENTER":213.8194,"MEAN_ANOMALY":146.1731,"EPHEMERIS_TYPE":0,"NORAD_CAT_ID":39418,"ELEMENT_SET_NO":999,"REV_AT_EPOCH":69270,"BSTAR":0.000089294429,"MEAN_MOTION_DOT":0.00001524,"MEAN_MOTION_DDOT":0},{"OBJECT_NAME":"SKYSAT-B","OBJECT_ID":"2014-037D","EPOCH":"2026-07-15T20:06:04.998240","CLASSIFICATION_TYPE":"U","MEAN_MOTION":14.88092801,"ECCENTRICITY":0.00056261,"INCLINATION":98.3854,"RA_OF_ASC_NODE":157.4397,"ARG_OF_PERICENTER":170.7304,"MEAN_ANOMALY":189.4016,"EPHEMERIS_TYPE":0,"NORAD_CAT_ID":40072,"ELEMENT_SET_NO":999,"REV_AT_EPOCH":65022,"BSTAR":0.000071933668,"MEAN_MOTION_DOT":0.000006,"MEAN_MOTION_DDOT":0},{"OBJECT_NAME":"SKYSAT-C1","OBJECT_ID":"2016-040C","EPOCH":"2026-07-15T13:05:14.752032","CLASSIFICATION_TYPE":"U","MEAN_MOTION":15.36752207,"ECCENTRICITY":0.0000299,"INCLINATION":96.9548,"RA_OF_ASC_NODE":226.7338,"ARG_OF_PERICENTER":305.8175,"MEAN_ANOMALY":54.3043,"EPHEMERIS_TYPE":0,"NORAD_CAT_ID":41601,"ELEMENT_SET_NO":999,"REV_AT_EPOCH":56222,"BSTAR":0.00015177567,"MEAN_MOTION_DOT":0.00005374,"MEAN_MOTION_DDOT":0},{"OBJECT_NAME":"SKYSAT-C4","OBJECT_ID":"2016-058B","EPOCH":"2026-07-15T11:56:16.479744","CLASSIFICATION_TYPE":"U","MEAN_MOTION":15.49444803,"ECCENTRICITY":0.0003425,"INCLINATION":96.9158,"RA_OF_ASC_NODE":217.0987,"ARG_OF_PERICENTER":116.4408,"MEAN_ANOMALY":243.7197,"EPHEMERIS_TYPE":0,"NORAD_CAT_ID":41771,"ELEMENT_SET_NO":999,"REV_AT_EPOCH":54985,"BSTAR":0.00021162188,"MEAN_MOTION_DOT":0.00011548,"MEAN_MOTION_DDOT":0},{"OBJECT_NAME":"SKYSAT-C5","OBJECT_ID":"2016-058C","EPOCH":"2026-07-15T08:12:09.018720","CLASSIFICATION_TYPE":"U","MEAN_MOTION":15.3372035,"ECCENTRICITY":0.00025669,"INCLINATION":97.0454,"RA_OF_ASC_NODE":235.7193,"ARG_OF_PERICENTER":160.1031,"MEAN_ANOMALY":200.0313,"EPHEMERIS_TYPE":0,"NORAD_CAT_ID":41772,"ELEMENT_SET_NO":999,"REV_AT_EPOCH":54806,"BSTAR":0.00012741023,"MEAN_MOTION_DOT":0.0000408,"MEAN_MOTION_DDOT":0},{"OBJECT_NAME":"SKYSAT-C2","OBJECT_ID":"2016-058D","EPOCH":"2026-07-15T00:38:38.303808","CLASSIFICATION_TYPE":"U","MEAN_MOTION":15.42678066,"ECCENTRICITY":0.00015194,"INCLINATION":97.0156,"RA_OF_ASC_NODE":217.0836,"ARG_OF_PERICENTER":354.7019,"MEAN_ANOMALY":5.4213,"EPHEMERIS_TYPE":0,"NORAD_CAT_ID":41773,"ELEMENT_SET_NO":999,"REV_AT_EPOCH":54934,"BSTAR":0.00016514772,"MEAN_MOTION_DOT":0.00007118,"MEAN_MOTION_DDOT":0},{"OBJECT_NAME":"SKYSAT-C3","OBJECT_ID":"2016-058E","EPOCH":"2026-07-15T00:59:04.071840","CLASSIFICATION_TYPE":"U","MEAN_MOTION":15.53702651,"ECCENTRICITY":0.00025158,"INCLINATION":96.8991,"RA_OF_ASC_NODE":225.8356,"ARG_OF_PERICENTER":132.046,"MEAN_ANOMALY":228.1009,"EPHEMERIS_TYPE":0,"NORAD_CAT_ID":41774,"ELEMENT_SET_NO":999,"REV_AT_EPOCH":55043,"BSTAR":0.00023176588,"MEAN_MOTION_DOT":0.00014739,"MEAN_MOTION_DDOT":0},{"OBJECT_NAME":"SKYSAT-C11","OBJECT_ID":"2017-068A","EPOCH":"2026-07-15T22:44:37.354848","CLASSIFICATION_TYPE":"U","MEAN_MOTION":15.59351131,"ECCENTRICITY":0.00011612,"INCLINATION":97.4381,"RA_OF_ASC_NODE":347.0668,"ARG_OF_PERICENTER":158.9178,"MEAN_ANOMALY":201.2126,"EPHEMERIS_TYPE":0,"NORAD_CAT_ID":42987,"ELEMENT_SET_NO":999,"REV_AT_EPOCH":48772,"BSTAR":0.00023691148,"MEAN_MOTION_DOT":0.00018575,"MEAN_MOTION_DDOT":0},{"OBJECT_NAME":"SKYSAT-C10","OBJECT_ID":"2017-068B","EPOCH":"2026-07-15T21:53:46.495680","CLASSIFICATION_TYPE":"U","MEAN_MOTION":15.35125075,"ECCENTRICITY":0.00014649,"INCLINATION":97.4542,"RA_OF_ASC_NODE":334.0538,"ARG_OF_PERICENTER":110.9376,"MEAN_ANOMALY":249.2024,"EPHEMERIS_TYPE":0,"NORAD_CAT_ID":42988,"ELEMENT_SET_NO":999,"REV_AT_EPOCH":48676,"BSTAR":0.00017869315,"MEAN_MOTION_DOT":0.00006009,"MEAN_MOTION_DDOT":0},{"OBJECT_NAME":"SKYSAT-C9","OBJECT_ID":"2017-068C","EPOCH":"2026-07-15T22:09:36.660672","CLASSIFICATION_TYPE":"U","MEAN_MOTION":15.42224961,"ECCENTRICITY":0.00085793,"INCLINATION":97.4461,"RA_OF_ASC_NODE":335.2786,"ARG_OF_PERICENTER":42.5748,"MEAN_ANOMALY":317.6163,"EPHEMERIS_TYPE":0,"NORAD_CAT_ID":42989,"ELEMENT_SET_NO":999,"REV_AT_EPOCH":48718,"BSTAR":0.00017584692,"MEAN_MOTION_DOT":0.00007471,"MEAN_MOTION_DDOT":0},{"OBJECT_NAME":"SKYSAT-C8","OBJECT_ID":"2017-068D","EPOCH":"2026-07-15T21:42:38.583936","CLASSIFICATION_TYPE":"U","MEAN_MOTION":15.3749951,"ECCENTRICITY":0.00012128,"INCLINATION":97.4558,"RA_OF_ASC_NODE":333.9566,"ARG_OF_PERICENTER":103.385,"MEAN_ANOMALY":256.753,"EPHEMERIS_TYPE":0,"NORAD_CAT_ID":42990,"ELEMENT_SET_NO":999,"REV_AT_EPOCH":48672,"BSTAR":0.00016040315,"MEAN_MOTION_DOT":0.00005815,"MEAN_MOTION_DDOT":0},{"OBJECT_NAME":"SKYSAT-C7","OBJECT_ID":"2017-068E","EPOCH":"2026-07-15T21:34:43.894560","CLASSIFICATION_TYPE":"U","MEAN_MOTION":15.37449994,"ECCENTRICITY":0.00056679,"INCLINATION":97.4569,"RA_OF_ASC_NODE":334.9426,"ARG_OF_PERICENTER":18.9667,"MEAN_ANOMALY":341.1788,"EPHEMERIS_TYPE":0,"NORAD_CAT_ID":42991,"ELEMENT_SET_NO":999,"REV_AT_EPOCH":48678,"BSTAR":0.00015896567,"MEAN_MOTION_DOT":0.00005755,"MEAN_MOTION_DDOT":0},{"OBJECT_NAME":"SKYSAT-C6","OBJECT_ID":"2017-068F","EPOCH":"2026-07-15T21:51:05.777856","CLASSIFICATION_TYPE":"U","MEAN_MOTION":15.34176907,"ECCENTRICITY":0.00050815,"INCLINATION":97.4607,"RA_OF_ASC_NODE":334.8045,"ARG_OF_PERICENTER":87.6386,"MEAN_ANOMALY":272.5438,"EPHEMERIS_TYPE":0,"NORAD_CAT_ID":42992,"ELEMENT_SET_NO":999,"REV_AT_EPOCH":48672,"BSTAR":0.0001554314,"MEAN_MOTION_DOT":0.00005061,"MEAN_MOTION_DDOT":0},{"OBJECT_NAME":"SKYSAT-C12","OBJECT_ID":"2018-099AR","EPOCH":"2026-07-15T21:35:26.656512","CLASSIFICATION_TYPE":"U","MEAN_MOTION":15.49801483,"ECCENTRICITY":0.00052998,"INCLINATION":96.9252,"RA_OF_ASC_NODE":218.9975,"ARG_OF_PERICENTER":68.67,"MEAN_ANOMALY":291.5117,"EPHEMERIS_TYPE":0,"NORAD_CAT_ID":43797,"ELEMENT_SET_NO":999,"REV_AT_EPOCH":42630,"BSTAR":0.00019132067,"MEAN_MOTION_DOT":0.00010566,"MEAN_MOTION_DDOT":0}]}
